{"type": "FeatureCollection", "features": [ {"type": "Feature", "properties": {"norad_id": 33153, "name": "INTELSAT 25 (IS-25)", "group": "intelsat", "lat": 2.253807300123099, "lon": 176.84658103176295, "alt_km": 35786.30099949619, "timestamp": "2025-12-23T07:45:09.064272+00:00", "meta": {"OBJECT_NAME": "INTELSAT 25 (IS-25)", "OBJECT_ID": "2008-034A", "EPOCH": "2025-12-22T18:09:03.279744", "MEAN_MOTION": 1.00272866, "ECCENTRICITY": 0.00048088, "INCLINATION": 2.2519, "RA_OF_ASC_NODE": 82.5437, "ARG_OF_PERICENTER": 186.4305, "MEAN_ANOMALY": 63.3431, "EPHEMERIS_TYPE": 0, "CLASSIFICATION_TYPE": "U", "NORAD_CAT_ID": 33153, "ELEMENT_SET_NO": 999, "REV_AT_EPOCH": 6392, "BSTAR": 0, "MEAN_MOTION_DOT": -2.04e-06, "MEAN_MOTION_DDOT": 0}, "tle": {"line1": "1 33153U 08034A   25356.75628796 -.00000204  00000+0  00000+0 0  9996", "line2": "2 33153   2.2519  82.5437 0004808 186.4305  63.3431  1.00272866 63924"}}, "geometry": {"type": "Point", "coordinates": [176.84658103176295, 2.253807300123099]}}, {"type": "Feature", "properties": {"norad_id": 33376, "name": "GALAXY 19 (G-19)", "group": "intelsat", "lat": 0.006155543463731293, "lon": 111.38493426826582, "alt_km": 35797.10937495972, "timestamp": "2025-12-23T07:45:09.064284+00:00", "meta": {"OBJECT_NAME": "GALAXY 19 (G-19)", "OBJECT_ID": "2008-045A", "EPOCH": "2025-12-22T21:15:45.401760", "MEAN_MOTION": 1.00271025, "ECCENTRICITY": 0.00026076, "INCLINATION": 0.0467, "RA_OF_ASC_NODE": 265.8558, "ARG_OF_PERICENTER": 13.4684, "MEAN_ANOMALY": 34.2956, "EPHEMERIS_TYPE": 0, "CLASSIFICATION_TYPE": "U", "NORAD_CAT_ID": 33376, "ELEMENT_SET_NO": 999, "REV_AT_EPOCH": 6313, "BSTAR": 0, "MEAN_MOTION_DOT": -1.18e-06, "MEAN_MOTION_DDOT": 0}, "tle": {"line1": "1 33376U 08045A   25356.88594215 -.00000118  00000+0  00000+0 0  9991", "line2": "2 33376   0.0467 265.8558 0002607  13.4684  34.2956  1.00271025 63131"}}, "geometry": {"type": "Point", "coordinates": [111.38493426826582, 0.006155543463731293]}}, {"type": "Feature", "properties": {"norad_id": 35493, "name": "FM-5", "group": "intelsat", "lat": 0.010848711412658236, "lon": 122.25444400303758, "alt_km": 35782.530847358714, "timestamp": "2025-12-23T07:45:09.064296+00:00", "meta": {"OBJECT_NAME": "FM-5", "OBJECT_ID": "2009-034A", "EPOCH": "2025-12-22T10:07:05.157408", "MEAN_MOTION": 1.00271549, "ECCENTRICITY": 0.00010976, "INCLINATION": 0.0241, "RA_OF_ASC_NODE": 288.3712, "ARG_OF_PERICENTER": 231.211, "MEAN_ANOMALY": 357.2827, "EPHEMERIS_TYPE": 0, "CLASSIFICATION_TYPE": "U", "NORAD_CAT_ID": 35493, "ELEMENT_SET_NO": 999, "REV_AT_EPOCH": 4487, "BSTAR": 0, "MEAN_MOTION_DOT": -1.79e-06, "MEAN_MOTION_DDOT": 0}, "tle": {"line1": "1 35493U 09034A   25356.42158747 -.00000179  00000+0  00000+0 0  9995", "line2": "2 35493   0.0241 288.3712 0001097 231.2110 357.2827  1.00271549 44877"}}, "geometry": {"type": "Point", "coordinates": [122.25444400303758, 0.010848711412658236]}}, {"type": "Feature", "properties": {"norad_id": 36097, "name": "INTELSAT 14 (IS-14)", "group": "intelsat", "lat": 0.012315414512703574, "lon": 163.36651538217467, "alt_km": 35792.121656034185, "timestamp": "2025-12-23T07:45:09.064307+00:00", "meta": {"OBJECT_NAME": "INTELSAT 14 (IS-14)", "OBJECT_ID": "2009-064A", "EPOCH": "2025-12-22T20:12:35.983296", "MEAN_MOTION": 1.00269853, "ECCENTRICITY": 0.00025302, "INCLINATION": 0.0062, "RA_OF_ASC_NODE": 5.7681, "ARG_OF_PERICENTER": 278.2453, "MEAN_ANOMALY": 65.7765, "EPHEMERIS_TYPE": 0, "CLASSIFICATION_TYPE": "U", "NORAD_CAT_ID": 36097, "ELEMENT_SET_NO": 999, "REV_AT_EPOCH": 5883, "BSTAR": 0, "MEAN_MOTION_DOT": -2.52e-06, "MEAN_MOTION_DDOT": 0}, "tle": {"line1": "1 36097U 09064A   25356.84208314 -.00000252  00000+0  00000+0 0  9993", "line2": "2 36097   0.0062   5.7681 0002530 278.2453  65.7765  1.00269853 58837"}}, "geometry": {"type": "Point", "coordinates": [163.36651538217467, 0.012315414512703574]}}, {"type": "Feature", "properties": {"norad_id": 36106, "name": "INTELSAT 15 (IS-15)", "group": "intelsat", "lat": -0.040868041757357434, "lon": -66.43846293732253, "alt_km": 35776.95445402018, "timestamp": "2025-12-23T07:45:09.064319+00:00", "meta": {"OBJECT_NAME": "INTELSAT 15 (IS-15)", "OBJECT_ID": "2009-067A", "EPOCH": "2025-12-22T22:07:47.917632", "MEAN_MOTION": 1.00271269, "ECCENTRICITY": 0.00022302, "INCLINATION": 0.0177, "RA_OF_ASC_NODE": 8.1154, "ARG_OF_PERICENTER": 275.52, "MEAN_ANOMALY": 225.1959, "EPHEMERIS_TYPE": 0, "CLASSIFICATION_TYPE": "U", "NORAD_CAT_ID": 36106, "ELEMENT_SET_NO": 999, "REV_AT_EPOCH": 3946, "BSTAR": 0, "MEAN_MOTION_DOT": -1.64e-06, "MEAN_MOTION_DDOT": 0}, "tle": {"line1": "1 36106U 09067A   25356.92208238 -.00000164  00000+0  00000+0 0  9993", "line2": "2 36106   0.0177   8.1154 0002230 275.5200 225.1959  1.00271269 39463"}}, "geometry": {"type": "Point", "coordinates": [-66.43846293732253, -0.040868041757357434]}}, {"type": "Feature", "properties": {"norad_id": 36131, "name": "DIRECTV 12", "group": "intelsat", "lat": 0.014205892079213895, "lon": 105.69234358251911, "alt_km": 35787.1901579679, "timestamp": "2025-12-23T07:45:09.064331+00:00", "meta": {"OBJECT_NAME": "DIRECTV 12", "OBJECT_ID": "2009-075A", "EPOCH": "2025-12-22T14:23:17.397024", "MEAN_MOTION": 1.00272947, "ECCENTRICITY": 4.824e-05, "INCLINATION": 0.0135, "RA_OF_ASC_NODE": 97.4838, "ARG_OF_PERICENTER": 233.73, "MEAN_ANOMALY": 233.2998, "EPHEMERIS_TYPE": 0, "CLASSIFICATION_TYPE": "U", "NORAD_CAT_ID": 36131, "ELEMENT_SET_NO": 999, "REV_AT_EPOCH": 4478, "BSTAR": 0, "MEAN_MOTION_DOT": -8.2e-07, "MEAN_MOTION_DDOT": 0}, "tle": {"line1": "1 36131U 09075A   25356.59950691 -.00000082  00000+0  00000+0 0  9999", "line2": "2 36131   0.0135  97.4838 0000482 233.7300 233.2998  1.00272947 44787"}}, "geometry": {"type": "Point", "coordinates": [105.69234358251911, 0.014205892079213895]}}, {"type": "Feature", "properties": {"norad_id": 36397, "name": "INTELSAT 16 (IS-16)", "group": "intelsat", "lat": 0.01509909398985024, "lon": 132.1855997884814, "alt_km": 35792.49519443262, "timestamp": "2025-12-23T07:45:09.064343+00:00", "meta": {"OBJECT_NAME": "INTELSAT 16 (IS-16)", "OBJECT_ID": "2010-006A", "EPOCH": "2025-12-22T21:21:44.828352", "MEAN_MOTION": 1.00270502, "ECCENTRICITY": 0.00018372, "INCLINATION": 0.0137, "RA_OF_ASC_NODE": 321.663, "ARG_OF_PERICENTER": 311.1052, "MEAN_ANOMALY": 63.162, "EPHEMERIS_TYPE": 0, "CLASSIFICATION_TYPE": "U", "NORAD_CAT_ID": 36397, "ELEMENT_SET_NO": 999, "REV_AT_EPOCH": 5788, "BSTAR": 0, "MEAN_MOTION_DOT": -2.23e-06, "MEAN_MOTION_DDOT": 0}, "tle": {"line1": "1 36397U 10006A   25356.89010218 -.00000223  00000+0  00000+0 0  9991", "line2": "2 36397   0.0137 321.6630 0001837 311.1052  63.1620  1.00270502 57887"}}, "geometry": {"type": "Point", "coordinates": [132.1855997884814, 0.01509909398985024]}}, {"type": "Feature", "properties": {"norad_id": 37185, "name": "XM-5", "group": "intelsat", "lat": 0.020766609953105485, "lon": 93.1896550996595, "alt_km": 35780.86508231285, "timestamp": "2025-12-23T07:45:09.064355+00:00", "meta": {"OBJECT_NAME": "XM-5", "OBJECT_ID": "2010-053A", "EPOCH": "2025-12-22T10:47:31.225344", "MEAN_MOTION": 1.00272, "ECCENTRICITY": 0.00021803, "INCLINATION": 0.0677, "RA_OF_ASC_NODE": 270.2646, "ARG_OF_PERICENTER": 239.2198, "MEAN_ANOMALY": 348.4632, "EPHEMERIS_TYPE": 0, "CLASSIFICATION_TYPE": "U", "NORAD_CAT_ID": 37185, "ELEMENT_SET_NO": 999, "REV_AT_EPOCH": 5571, "BSTAR": 0, "MEAN_MOTION_DOT": -1e-08, "MEAN_MOTION_DDOT": 0}, "tle": {"line1": "1 37185U 10053A   25356.44966696 -.00000001  00000+0  00000+0 0  9994", "line2": "2 37185   0.0677 270.2646 0002180 239.2198 348.4632  1.00272000 55718"}}, "geometry": {"type": "Point", "coordinates": [93.1896550996595, 0.020766609953105485]}}, {"type": "Feature", "properties": {"norad_id": 37238, "name": "INTELSAT 17 (IS-17)", "group": "intelsat", "lat": -0.014690758534789048, "lon": -85.62097683786865, "alt_km": 35775.2545105145, "timestamp": "2025-12-23T07:45:09.064367+00:00", "meta": {"OBJECT_NAME": "INTELSAT 17 (IS-17)", "OBJECT_ID": "2010-065B", "EPOCH": "2025-12-22T22:02:18.444192", "MEAN_MOTION": 1.00271253, "ECCENTRICITY": 0.00026056, "INCLINATION": 0.0081, "RA_OF_ASC_NODE": 298.9752, "ARG_OF_PERICENTER": 342.1164, "MEAN_ANOMALY": 207.1885, "EPHEMERIS_TYPE": 0, "CLASSIFICATION_TYPE": "U", "NORAD_CAT_ID": 37238, "ELEMENT_SET_NO": 999, "REV_AT_EPOCH": 5148, "BSTAR": 0, "MEAN_MOTION_DOT": 2e-07, "MEAN_MOTION_DDOT": 0}, "tle": {"line1": "1 37238U 10065B   25356.91826903  .00000020  00000+0  00000+0 0  9994", "line2": "2 37238   0.0081 298.9752 0002605 342.1164 207.1885  1.00271253 51480"}}, "geometry": {"type": "Point", "coordinates": [-85.62097683786865, -0.014690758534789048]}}, {"type": "Feature", "properties": {"norad_id": 37392, "name": "INTELSAT 28 (IS-28)", "group": "intelsat", "lat": 1.3557598098373782, "lon": 176.637374057356, "alt_km": 35789.05001982583, "timestamp": "2025-12-23T07:45:09.064379+00:00", "meta": {"OBJECT_NAME": "INTELSAT 28 (IS-28)", "OBJECT_ID": "2011-016A", "EPOCH": "2025-12-22T18:09:03.279744", "MEAN_MOTION": 1.0026908, "ECCENTRICITY": 0.00037376, "INCLINATION": 1.3489, "RA_OF_ASC_NODE": 84.9492, "ARG_OF_PERICENTER": 190.2075, "MEAN_ANOMALY": 56.9504, "EPHEMERIS_TYPE": 0, "CLASSIFICATION_TYPE": "U", "NORAD_CAT_ID": 37392, "ELEMENT_SET_NO": 999, "REV_AT_EPOCH": 5151, "BSTAR": 0, "MEAN_MOTION_DOT": -2.04e-06, "MEAN_MOTION_DDOT": 0}, "tle": {"line1": "1 37392U 11016A   25356.75628796 -.00000204  00000+0  00000+0 0  9999", "line2": "2 37392   1.3489  84.9492 0003737 190.2075  56.9504  1.00269080 51518"}}, "geometry": {"type": "Point", "coordinates": [176.637374057356, 1.3557598098373782]}}]}